$$SOE
2460154.500000000, A.D. 2023-Jul-29 00:00:00.0000, 1.696377883287008E+09, 4.479794421699147E+09, -2.931472852759526E+08,
2460161.500000000, A.D. 2023-Aug-05 00:00:00.0000, 1.693413301196068E+09, 4.481364730320761E+09, -2.940290492441375E+08,
2460168.500000000, A.D. 2023-Aug-12 00:00:00.0000, 1.690447888440356E+09, 4.482933040450842E+09, -2.949106814158309E+08,
2460175.500000000, A.D. 2023-Aug-19 00:00:00.0000, 1.687481644545824E+09, 4.484499349522786E+09, -2.957921813212872E+08,
2460182.500000000, A.D. 2023-Aug-26 00:00:00.0000, 1.684514569343597E+09, 4.486063654572812E+09, -2.966735485151694E+08,
2460189.500000000, A.D. 2023-Sep-02 00:00:00.0000, 1.681546662947718E+09, 4.487625952258649E+09, -2.975547825751333E+08,
2460196.500000000, A.D. 2023-Sep-09 00:00:00.0000, 1.678577925746521E+09, 4.489186238765680E+09, -2.984358831117682E+08,
2460203.500000000, A.D. 2023-Sep-16 00:00:00.0000, 1.675608358576048E+09, 4.490744509542560E+09, -2.993168498100326E+08,
2460210.500000000, A.D. 2023-Sep-23 00:00:00.0000, 1.672637963491930E+09, 4.492300759153064E+09, -3.001976825168672E+08,
2460217.500000000, A.D. 2023-Sep-30 00:00:00.0000, 1.669666744800167E+09, 4.493854982434916E+09, -3.010783812464378E+08,
2460224.500000000, A.D. 2023-Oct-07 00:00:00.0000, 1.666694707993052E+09, 4.495407176422737E+09, -3.019589459313498E+08,
2460231.500000000, A.D. 2023-Oct-14 00:00:00.0000, 1.663721857630160E+09, 4.496957339721988E+09, -3.028393762858045E+08,
2460238.500000000, A.D. 2023-Oct-21 00:00:00.0000, 1.660748197392986E+09, 4.498505470936578E+09, -3.037196719456687E+08,
2460245.500000000, A.D. 2023-Oct-28 00:00:00.0000, 1.657773730888888E+09, 4.500051568410315E+09, -3.045998325698848E+08,
2460252.500000000, A.D. 2023-Nov-04 00:00:00.0000, 1.654798461954298E+09, 4.501595630511752E+09, -3.054798578512609E+08,
2460259.500000000, A.D. 2023-Nov-11 00:00:00.0000, 1.651822394634764E+09, 4.503137655862601E+09, -3.063597475016952E+08,
2460266.500000000, A.D. 2023-Nov-18 00:00:00.0000, 1.648845533061334E+09, 4.504677643445368E+09, -3.072395012369647E+08,
2460273.500000000, A.D. 2023-Nov-25 00:00:00.0000, 1.645867881296087E+09, 4.506215592612798E+09, -3.081191187656951E+08,
2460280.500000000, A.D. 2023-Dec-02 00:00:00.0000, 1.642889443175023E+09, 4.507751502987917E+09, -3.089985997858260E+08,
2460287.500000000, A.D. 2023-Dec-09 00:00:00.0000, 1.639910222226114E+09, 4.509285374195765E+09, -3.098779440004184E+08,
2460294.500000000, A.D. 2023-Dec-16 00:00:00.0000, 1.636930221950075E+09, 4.510817205439386E+09, -3.107571511781106E+08,
2460301.500000000, A.D. 2023-Dec-23 00:00:00.0000, 1.633949446812311E+09, 4.512346995607521E+09, -3.116362212340453E+08,
2460308.500000000, A.D. 2023-Dec-30 00:00:00.0000, 1.630967902605801E+09, 4.513874744963249E+09, -3.125151541227114E+08,
2460315.500000000, A.D. 2024-Jan-06 00:00:00.0000, 1.627985594412494E+09, 4.515400456052882E+09, -3.133939495732126E+08,
2460322.500000000, A.D. 2024-Jan-13 00:00:00.0000, 1.625002525335940E+09, 4.516924132028173E+09, -3.142726071058755E+08,
2460329.500000000, A.D. 2024-Jan-20 00:00:00.0000, 1.622018697228722E+09, 4.518445775466467E+09, -3.151511261905856E+08,
2460336.500000000, A.D. 2024-Jan-27 00:00:00.0000, 1.619034111385954E+09, 4.519965388340934E+09, -3.160295063077314E+08,
2460343.500000000, A.D. 2024-Feb-03 00:00:00.0000, 1.616048768776462E+09, 4.521482972192316E+09, -3.169077469502137E+08,
2460350.500000000, A.D. 2024-Feb-10 00:00:00.0000, 1.613062670089027E+09, 4.522998528211050E+09, -3.177858476159737E+08,
2460357.500000000, A.D. 2024-Feb-17 00:00:00.0000, 1.610075815732376E+09, 4.524512057237679E+09, -3.186638078032808E+08,
2460364.500000000, A.D. 2024-Feb-24 00:00:00.0000, 1.607088205824865E+09, 4.526023559696370E+09, -3.195416270110245E+08,
2460371.500000000, A.D. 2024-Mar-02 00:00:00.0000, 1.604099840203201E+09, 4.527533035429000E+09, -3.204193047494628E+08,
2460378.500000000, A.D. 2024-Mar-09 00:00:00.0000, 1.601110718589008E+09, 4.529040483366946E+09, -3.212968405793700E+08,
2460385.500000000, A.D. 2024-Mar-16 00:00:00.0000, 1.598120841308550E+09, 4.530545901237876E+09, -3.221742341997895E+08,
2460392.500000000, A.D. 2024-Mar-23 00:00:00.0000, 1.595130210462025E+09, 4.532049286416552E+09, -3.230514854842839E+08,
2460399.500000000, A.D. 2024-Mar-30 00:00:00.0000, 1.592138829301288E+09, 4.533550637892863E+09, -3.239285942623298E+08,
2460406.500000000, A.D. 2024-Apr-06 00:00:00.0000, 1.589146700072040E+09, 4.535049955989493E+09, -3.248055601445627E+08,
2460413.500000000, A.D. 2024-Apr-13 00:00:00.0000, 1.586153823871607E+09, 4.536547240665612E+09, -3.256823826492233E+08,
2460420.500000000, A.D. 2024-Apr-20 00:00:00.0000, 1.583160201570170E+09, 4.538042491083281E+09, -3.265590613237314E+08,
2460427.500000000, A.D. 2024-Apr-27 00:00:00.0000, 1.580165834278417E+09, 4.539535705875174E+09, -3.274355957680707E+08,
2460434.500000000, A.D. 2024-May-04 00:00:00.0000, 1.577170723449547E+09, 4.541026883410313E+09, -3.283119856254711E+08,
2460441.500000000, A.D. 2024-May-11 00:00:00.0000, 1.574174870853946E+09, 4.542516021956203E+09, -3.291882305704710E+08,
2460448.500000000, A.D. 2024-May-18 00:00:00.0000, 1.571178278508550E+09, 4.544003119759257E+09, -3.300643302999709E+08,
2460455.500000000, A.D. 2024-May-25 00:00:00.0000, 1.568180948585573E+09, 4.545488175036690E+09, -3.309402845299478E+08,
2460462.500000000, A.D. 2024-Jun-01 00:00:00.0000, 1.565182883360499E+09, 4.546971185822812E+09, -3.318160930077970E+08,
2460469.500000000, A.D. 2024-Jun-08 00:00:00.0000, 1.562184085445644E+09, 4.548452149647047E+09, -3.326917555645211E+08,
2460476.500000000, A.D. 2024-Jun-15 00:00:00.0000, 1.559184558708858E+09, 4.549931063589057E+09, -3.335672721986187E+08,
2460483.500000000, A.D. 2024-Jun-22 00:00:00.0000, 1.556184308872108E+09, 4.551407925886344E+09, -3.344426430031395E+08,
2460490.500000000, A.D. 2024-Jun-29 00:00:00.0000, 1.553183341668348E+09, 4.552882737273725E+09, -3.353178678898754E+08,
2460497.500000000, A.D. 2024-Jul-06 00:00:00.0000, 1.550181661201650E+09, 4.554355499583692E+09, -3.361929465549958E+08,
2460504.500000000, A.D. 2024-Jul-13 00:00:00.0000, 1.547179270459863E+09, 4.555826214431879E+09, -3.370678786339755E+08,
2460511.500000000, A.D. 2024-Jul-20 00:00:00.0000, 1.544176171994149E+09, 4.557294883136357E+09, -3.379426637697294E+08,
2460518.500000000, A.D. 2024-Jul-27 00:00:00.0000, 1.541172368109381E+09, 4.558761506911365E+09, -3.388173016121693E+08,
2460525.500000000, A.D. 2024-Aug-03 00:00:00.0000, 1.538167860838358E+09, 4.560226086960592E+09, -3.396917918049350E+08,
2460532.500000000, A.D. 2024-Aug-10 00:00:00.0000, 1.535162651865600E+09, 4.561688624465787E+09, -3.405661339750090E+08,
2460539.500000000, A.D. 2024-Aug-17 00:00:00.0000, 1.532156742448051E+09, 4.563149120492672E+09, -3.414403277279735E+08,
2460546.500000000, A.D. 2024-Aug-24 00:00:00.0000, 1.529150133360523E+09, 4.564607575792297E+09, -3.423143726535277E+08,
2460553.500000000, A.D. 2024-Aug-31 00:00:00.0000, 1.526142824981524E+09, 4.566063990436695E+09, -3.431882683571346E+08,
2460560.500000000, A.D. 2024-Sep-07 00:00:00.0000, 1.523134817884933E+09, 4.567518363415587E+09, -3.440620145412762E+08,
2460567.500000000, A.D. 2024-Sep-14 00:00:00.0000, 1.520126114022802E+09, 4.568970693190293E+09, -3.449356110629857E+08,
2460574.500000000, A.D. 2024-Sep-21 00:00:00.0000, 1.517116716470440E+09, 4.570420979617681E+09, -3.458090577480679E+08,
2460581.500000000, A.D. 2024-Sep-28 00:00:00.0000, 1.514106627246273E+09, 4.571869224016663E+09, -3.466823541812618E+08,
2460588.500000000, A.D. 2024-Oct-05 00:00:00.0000, 1.511095846876207E+09, 4.573315427379065E+09, -3.475554998089094E+08,
2460595.500000000, A.D. 2024-Oct-12 00:00:00.0000, 1.508084375341857E+09, 4.574759589705085E+09, -3.484284940776505E+08,
2460602.500000000, A.D. 2024-Oct-19 00:00:00.0000, 1.505072212661715E+09, 4.576201710192683E+09, -3.493013364706974E+08,
2460609.500000000, A.D. 2024-Oct-26 00:00:00.0000, 1.502059359072932E+09, 4.577641787479677E+09, -3.501740265042472E+08,
2460616.500000000, A.D. 2024-Nov-02 00:00:00.0000, 1.499045815071136E+09, 4.579079819790425E+09, -3.510465637197533E+08,
2460623.500000000, A.D. 2024-Nov-09 00:00:00.0000, 1.496031581405037E+09, 4.580515805008039E+09, -3.519189476791914E+08,
2460630.500000000, A.D. 2024-Nov-16 00:00:00.0000, 1.493016659051853E+09, 4.581949740672725E+09, -3.527911779656265E+08,
2460637.500000000, A.D. 2024-Nov-23 00:00:00.0000, 1.490001049220660E+09, 4.583381623856595E+09, -3.536632541974003E+08,
2460644.500000000, A.D. 2024-Nov-30 00:00:00.0000, 1.486984753592080E+09, 4.584811450872601E+09, -3.545351760784471E+08,
2460651.500000000, A.D. 2024-Dec-07 00:00:00.0000, 1.483967775213864E+09, 4.586239217238402E+09, -3.554069434887333E+08,
2460658.500000000, A.D. 2024-Dec-14 00:00:00.0000, 1.480950119363829E+09, 4.587664919119338E+09, -3.562785564515152E+08,
2460665.500000000, A.D. 2024-Dec-21 00:00:00.0000, 1.477931792061664E+09, 4.589088555009854E+09, -3.571500148659949E+08,
2460672.500000000, A.D. 2024-Dec-28 00:00:00.0000, 1.474912798202128E+09, 4.590510124686163E+09, -3.580213184286196E+08,
2460679.500000000, A.D. 2025-Jan-04 00:00:00.0000, 1.471893141906935E+09, 4.591929627806360E+09, -3.588924667868519E+08,
2460686.500000000, A.D. 2025-Jan-11 00:00:00.0000, 1.468872827274135E+09, 4.593347063817891E+09, -3.597634596224895E+08,
2460693.500000000, A.D. 2025-Jan-18 00:00:00.0000, 1.465851858608202E+09, 4.594762432253586E+09, -3.606342966552563E+08,
2460700.500000000, A.D. 2025-Jan-25 00:00:00.0000, 1.462830240374433E+09, 4.596175732941733E+09, -3.615049776275315E+08,
2460707.500000000, A.D. 2025-Feb-01 00:00:00.0000, 1.459807977067293E+09, 4.597586966100074E+09, -3.623755022897811E+08,
2460714.500000000, A.D. 2025-Feb-08 00:00:00.0000, 1.456785073051248E+09, 4.598996132333356E+09, -3.632458703902090E+08,
2460721.500000000, A.D. 2025-Feb-15 00:00:00.0000, 1.453761532402970E+09, 4.600403232514446E+09, -3.641160816726949E+08,
$$EOE